[{"OBJECT_NAME":"ONEWEB-0720","OBJECT_ID":"2023-029AR","EPOCH":"2025-10-31T16:30:02.624832","MEAN_MOTION":13.19725611,"ECCENTRICITY":0.0002209,"INCLINATION":87.9236,"RA_OF_ASC_NODE":350.4531,"ARG_OF_PERICENTER":106.1026,"MEAN_ANOMALY":254.035,"EPHEMERIS_TYPE":0,"CLASSIFICATION_TYPE":"U","NORAD_CAT_ID":55835,"ELEMENT_SET_NO":999,"REV_AT_EPOCH":12870,"BSTAR":9.0093e-5,"MEAN_MOTION_DOT":4.9e-7,"MEAN_MOTION_DDOT":0},{"OBJECT_NAME":"ONEWEB-0537","OBJECT_ID":"2023-043A","EPOCH":"2025-10-31T16:07:17.721696","MEAN_MOTION":13.1659473,"ECCENTRICITY":0.0001989,"INCLINATION":87.9002,"RA_OF_ASC_NODE":274.2846,"ARG_OF_PERICENTER":77.8039,"MEAN_ANOMALY":282.3315,"EPHEMERIS_TYPE":0,"CLASSIFICATION_TYPE":"U","NORAD_CAT_ID":56046,"ELEMENT_SET_NO":999,"REV_AT_EPOCH":12889,"BSTAR":0.00014188,"MEAN_MOTION_DOT":6.7e-7,"MEAN_MOTION_DDOT":0},{"OBJECT_NAME":"ONEWEB-0538","OBJECT_ID":"2023-043B","EPOCH":"2025-10-31T15:58:11.499168","MEAN_MOTION":13.1659469,"ECCENTRICITY":0.0002215,"INCLINATION":87.8988,"RA_OF_ASC_NODE":274.2929,"ARG_OF_PERICENTER":83.0752,"MEAN_ANOMALY":277.0631,"EPHEMERIS_TYPE":0,"CLASSIFICATION_TYPE":"U","NORAD_CAT_ID":56047,"ELEMENT_SET_NO":999,"REV_AT_EPOCH":12890,"BSTAR":0.0001418,"MEAN_MOTION_DOT":6.7e-7,"MEAN_MOTION_DDOT":0},{"OBJECT_NAME":"ONEWEB-0546","OBJECT_ID":"2023-043C","EPOCH":"2025-10-31T15:39:56.419776","MEAN_MOTION":13.16595003,"ECCENTRICITY":0.0002043,"INCLINATION":87.9002,"RA_OF_ASC_NODE":274.2823,"ARG_OF_PERICENTER":64.202,"MEAN_ANOMALY":295.9322,"EPHEMERIS_TYPE":0,"CLASSIFICATION_TYPE":"U","NORAD_CAT_ID":56048,"ELEMENT_SET_NO":999,"REV_AT_EPOCH":12889,"BSTAR":-2.5394e-5,"MEAN_MOTION_DOT":3.0e-8,"MEAN_MOTION_DDOT":0},{"OBJECT_NAME":"ONEWEB-0547","OBJECT_ID":"2023-043D","EPOCH":"2025-10-31T17:18:51.551136","MEAN_MOTION":13.21825795,"ECCENTRICITY":0.0002053,"INCLINATION":87.9174,"RA_OF_ASC_NODE":289.5517,"ARG_OF_PERICENTER":90.4328,"MEAN_ANOMALY":269.7041,"EPHEMERIS_TYPE":0,"CLASSIFICATION_TYPE":"U","NORAD_CAT_ID":56049,"ELEMENT_SET_NO":999,"REV_AT_EPOCH":12804,"BSTAR":1.5138e-6,"MEAN_MOTION_DOT":1.4e-7,"MEAN_MOTION_DDOT":0},{"OBJECT_NAME":"ONEWEB-0548","OBJECT_ID":"2023-043E","EPOCH":"2025-10-31T10:48:07.033824","MEAN_MOTION":13.16595907,"ECCENTRICITY":0.0001432,"INCLINATION":87.8985,"RA_OF_ASC_NODE":274.3367,"ARG_OF_PERICENTER":89.7442,"MEAN_ANOMALY":270.3853,"EPHEMERIS_TYPE":0,"CLASSIFICATION_TYPE":"U","NORAD_CAT_ID":56050,"ELEMENT_SET_NO":999,"REV_AT_EPOCH":12886,"BSTAR":0.00057753,"MEAN_MOTION_DOT":2.34e-6,"MEAN_MOTION_DDOT":0},{"OBJECT_NAME":"ONEWEB-0549","OBJECT_ID":"2023-043F","EPOCH":"2025-10-31T17:08:10.245408","MEAN_MOTION":13.21824152,"ECCENTRICITY":0.0002172,"INCLINATION":87.9168,"RA_OF_ASC_NODE":289.5687,"ARG_OF_PERICENTER":90.3334,"MEAN_ANOMALY":269.8049,"EPHEMERIS_TYPE":0,"CLASSIFICATION_TYPE":"U","NORAD_CAT_ID":56051,"ELEMENT_SET_NO":999,"REV_AT_EPOCH":12804,"BSTAR":-9.108e-5,"MEAN_MOTION_DOT":-2.5e-7,"MEAN_MOTION_DDOT":0},{"OBJECT_NAME":"ONEWEB-0550","OBJECT_ID":"2023-043G","EPOCH":"2025-10-31T16:49:14.963232","MEAN_MOTION":13.21826487,"ECCENTRICITY":0.0001744,"INCLINATION":87.9171,"RA_OF_ASC_NODE":289.5658,"ARG_OF_PERICENTER":87.6202,"MEAN_ANOMALY":272.5132,"EPHEMERIS_TYPE":0,"CLASSIFICATION_TYPE":"U","NORAD_CAT_ID":56052,"ELEMENT_SET_NO":999,"REV_AT_EPOCH":12804,"BSTAR":0.00018943,"MEAN_MOTION_DOT":9.1e-7,"MEAN_MOTION_DDOT":0},{"OBJECT_NAME":"ONEWEB-0551","OBJECT_ID":"2023-043H","EPOCH":"2025-10-31T12:38:45.138912","MEAN_MOTION":13.15549822,"ECCENTRICITY":0.0002076,"INCLINATION":87.896,"RA_OF_ASC_NODE":304.8662,"ARG_OF_PERICENTER":97.9873,"MEAN_ANOMALY":262.1493,"EPHEMERIS_TYPE":0,"CLASSIFICATION_TYPE":"U","NORAD_CAT_ID":56053,"ELEMENT_SET_NO":999,"REV_AT_EPOCH":12633,"BSTAR":0.00039759,"MEAN_MOTION_DOT":1.63e-6,"MEAN_MOTION_DDOT":0},{"OBJECT_NAME":"ONEWEB-0552","OBJECT_ID":"2023-043J","EPOCH":"2025-10-31T16:42:08.212896","MEAN_MOTION":13.21829097,"ECCENTRICITY":0.0002013,"INCLINATION":87.9171,"RA_OF_ASC_NODE":289.5758,"ARG_OF_PERICENTER":95.9161,"MEAN_ANOMALY":264.2202,"EPHEMERIS_TYPE":0,"CLASSIFICATION_TYPE":"U","NORAD_CAT_ID":56054,"ELEMENT_SET_NO":999,"REV_AT_EPOCH":12804,"BSTAR":0.00017231,"MEAN_MOTION_DOT":8.4e-7,"MEAN_MOTION_DDOT":0},{"OBJECT_NAME":"ONEWEB-0553","OBJECT_ID":"2023-043K","EPOCH":"2025-10-31T15:49:03.945216","MEAN_MOTION":13.16595594,"ECCENTRICITY":0.000181,"INCLINATION":87.8991,"RA_OF_ASC_NODE":274.2925,"ARG_OF_PERICENTER":73.1454,"MEAN_ANOMALY":286.9876,"EPHEMERIS_TYPE":0,"CLASSIFICATION_TYPE":"U","NORAD_CAT_ID":56055,"ELEMENT_SET_NO":999,"REV_AT_EPOCH":12890,"BSTAR":0.00016303,"MEAN_MOTION_DOT":7.5e-7,"MEAN_MOTION_DDOT":0},{"OBJECT_NAME":"ONEWEB-0554","OBJECT_ID":"2023-043L","EPOCH":"2025-10-31T15:30:48.865824","MEAN_MOTION":13.16592047,"ECCENTRICITY":0.0001636,"INCLINATION":87.8979,"RA_OF_ASC_NODE":274.3144,"ARG_OF_PERICENTER":85.1767,"MEAN_ANOMALY":274.955,"EPHEMERIS_TYPE":0,"CLASSIFICATION_TYPE":"U","NORAD_CAT_ID":56056,"ELEMENT_SET_NO":999,"REV_AT_EPOCH":12888,"BSTAR":-7.6679e-5,"MEAN_MOTION_DOT":-1.6e-7,"MEAN_MOTION_DDOT":0},{"OBJECT_NAME":"ONEWEB-0555","OBJECT_ID":"2023-043M","EPOCH":"2025-10-31T20:04:24.229056","MEAN_MOTION":13.16595074,"ECCENTRICITY":0.0001869,"INCLINATION":87.8993,"RA_OF_ASC_NODE":274.252,"ARG_OF_PERICENTER":67.1774,"MEAN_ANOMALY":292.9554,"EPHEMERIS_TYPE":0,"CLASSIFICATION_TYPE":"U","NORAD_CAT_ID":56057,"ELEMENT_SET_NO":999,"REV_AT_EPOCH":12891,"BSTAR":-3.6885e-5,"MEAN_MOTION_DOT":-1.0e-8,"MEAN_MOTION_DDOT":0},{"OBJECT_NAME":"ONEWEB-0557","OBJECT_ID":"2023-043N","EPOCH":"2025-10-31T20:24:54.983232","MEAN_MOTION":13.16591402,"ECCENTRICITY":8.42e-5,"INCLINATION":87.899,"RA_OF_ASC_NODE":274.2633,"ARG_OF_PERICENTER":50.0888,"MEAN_ANOMALY":310.0317,"EPHEMERIS_TYPE":0,"CLASSIFICATION_TYPE":"U","NORAD_CAT_ID":56058,"ELEMENT_SET_NO":999,"REV_AT_EPOCH":12891,"BSTAR":-0.00022003,"MEAN_MOTION_DOT":-7.1e-7,"MEAN_MOTION_DDOT":0},{"OBJECT_NAME":"ONEWEB-0558","OBJECT_ID":"2023-043P","EPOCH":"2025-10-31T16:32:40.684128","MEAN_MOTION":13.21828655,"ECCENTRICITY":0.0002454,"INCLINATION":87.9168,"RA_OF_ASC_NODE":289.5713,"ARG_OF_PERICENTER":91.4006,"MEAN_ANOMALY":268.7409,"EPHEMERIS_TYPE":0,"CLASSIFICATION_TYPE":"U","NORAD_CAT_ID":56059,"ELEMENT_SET_NO":999,"REV_AT_EPOCH":12805,"BSTAR":0.00010404,"MEAN_MOTION_DOT":5.6e-7,"MEAN_MOTION_DDOT":0},{"OBJECT_NAME":"ONEWEB-0559","OBJECT_ID":"2023-043Q","EPOCH":"2025-10-31T16:16:05.256768","MEAN_MOTION":13.2182748,"ECCENTRICITY":0.0002072,"INCLINATION":87.917,"RA_OF_ASC_NODE":289.5664,"ARG_OF_PERICENTER":95.5014,"MEAN_ANOMALY":264.6356,"EPHEMERIS_TYPE":0,"CLASSIFICATION_TYPE":"U","NORAD_CAT_ID":56060,"ELEMENT_SET_NO":999,"REV_AT_EPOCH":12806,"BSTAR":0.00032094,"MEAN_MOTION_DOT":1.46e-6,"MEAN_MOTION_DDOT":0},{"OBJECT_NAME":"ONEWEB-0566","OBJECT_ID":"2023-043R","EPOCH":"2025-10-31T16:06:37.176768","MEAN_MOTION":13.21825955,"ECCENTRICITY":0.0002192,"INCLINATION":87.9167,"RA_OF_ASC_NODE":289.5655,"ARG_OF_PERICENTER":93.8196,"MEAN_ANOMALY":266.3189,"EPHEMERIS_TYPE":0,"CLASSIFICATION_TYPE":"U","NORAD_CAT_ID":56061,"ELEMENT_SET_NO":999,"REV_AT_EPOCH":12804,"BSTAR":0.00026886,"MEAN_MOTION_DOT":1.24e-6,"MEAN_MOTION_DDOT":0}]
