ONEWEB-0720             
1 55835U 23029AR  25304.68753038  .00000049  00000+0  90093-4 0  9993
2 55835  87.9236 350.4531 0002209 106.1026 254.0350 13.19725611128706
ONEWEB-0537             
1 56046U 23043A   25304.67173289  .00000067  00000+0  14188-3 0  9997
2 56046  87.9002 274.2846 0001989  77.8039 282.3315 13.16594730128894
ONEWEB-0538             
1 56047U 23043B   25304.66541087  .00000067  00000+0  14180-3 0  9994
2 56047  87.8988 274.2929 0002215  83.0752 277.0631 13.16594690128902
ONEWEB-0546             
1 56048U 23043C   25304.65273634  .00000003  00000+0 -25394-4 0  9995
2 56048  87.9002 274.2823 0002043  64.2020 295.9322 13.16595003128895
ONEWEB-0547             
1 56049U 23043D   25304.72142999  .00000014  00000+0  15138-5 0  9990
2 56049  87.9174 289.5517 0002053  90.4328 269.7041 13.21825795128042
ONEWEB-0548             
1 56050U 23043E   25304.45008141  .00000234  00000+0  57753-3 0  9993
2 56050  87.8985 274.3367 0001432  89.7442 270.3853 13.16595907128868
ONEWEB-0549             
1 56051U 23043F   25304.71400747 -.00000025  00000+0 -91080-4 0  9993
2 56051  87.9168 289.5687 0002172  90.3334 269.8049 13.21824152128049
ONEWEB-0550             
1 56052U 23043G   25304.70086763  .00000091  00000+0  18943-3 0  9998
2 56052  87.9171 289.5658 0001744  87.6202 272.5132 13.21826487128046
ONEWEB-0551             
1 56053U 23043H   25304.52691133  .00000163  00000+0  39759-3 0  9990
2 56053  87.8960 304.8662 0002076  97.9873 262.1493 13.15549822126338
ONEWEB-0552             
1 56054U 23043J   25304.69592839  .00000084  00000+0  17231-3 0  9995
2 56054  87.9171 289.5758 0002013  95.9161 264.2202 13.21829097128041
ONEWEB-0553             
1 56055U 23043K   25304.65907344  .00000075  00000+0  16303-3 0  9992
2 56055  87.8991 274.2925 0001810  73.1454 286.9876 13.16595594128904
ONEWEB-0554             
1 56056U 23043L   25304.64639891 -.00000016  00000+0 -76679-4 0  9991
2 56056  87.8979 274.3144 0001636  85.1767 274.9550 13.16592047128884
ONEWEB-0555             
1 56057U 23043M   25304.83639154 -.00000001  00000+0 -36885-4 0  9994
2 56057  87.8993 274.2520 0001869  67.1774 292.9554 13.16595074128915
ONEWEB-0557             
1 56058U 23043N   25304.85063638 -.00000071  00000+0 -22003-3 0  9998
2 56058  87.8990 274.2633 0000842  50.0888 310.0317 13.16591402128915
ONEWEB-0558             
1 56059U 23043P   25304.68935977  .00000056  00000+0  10404-3 0  9997
2 56059  87.9168 289.5713 0002454  91.4006 268.7409 13.21828655128059
ONEWEB-0559             
1 56060U 23043Q   25304.67783862  .00000146  00000+0  32094-3 0  9991
2 56060  87.9170 289.5664 0002072  95.5014 264.6356 13.21827480128061
ONEWEB-0566             
1 56061U 23043R   25304.67126362  .00000124  00000+0  26886-3 0  9996
2 56061  87.9167 289.5655 0002192  93.8196 266.3189 13.21825955128049
